OBJECT_NAME,OBJECT_ID,EPOCH,MEAN_MOTION,ECCENTRICITY,INCLINATION,RA_OF_ASC_NODE,ARG_OF_PERICENTER,MEAN_ANOMALY,EPHEMERIS_TYPE,CLASSIFICATION_TYPE,NORAD_CAT_ID,ELEMENT_SET_NO,REV_AT_EPOCH,BSTAR,MEAN_MOTION_DOT,MEAN_MOTION_DDOT
STARLINK-37598,2026-123E,2026-06-28T11:38:18.652704,15.80929779,.00013482,53.1563,185.1451,96.8804,263.2372,0,U,69357,999,382,.92932853E-3,.187241E-2,0
STARLINK-37602,2026-123F,2026-06-28T06:39:27.613152,15.75245452,.00010894,53.1587,186.7150,97.8989,262.2155,0,U,69358,999,378,.11344434E-2,.176991E-2,0
STARLINK-37600,2026-123G,2026-06-28T06:33:23.397408,15.75239286,.00011602,53.1570,186.6869,78.2610,281.8541,0,U,69359,999,378,.13282289E-2,.20805E-2,0
STARLINK-37599,2026-123H,2026-06-28T12:54:24.695712,15.80967665,.00010616,53.1550,184.7582,102.2131,257.9010,0,U,69360,999,383,.1330148E-2,.271432E-2,0
STARLINK-37039,2026-123J,2026-06-28T07:31:36.479424,15.75266215,.00012201,53.1589,186.2169,92.2596,267.8564,0,U,69361,999,379,.15044249E-2,.236823E-2,0
STARLINK-37040,2026-123K,2026-06-28T12:33:42.630048,15.80955402,.00027752,53.1565,184.6606,164.9255,195.1851,0,U,69362,999,383,.78074169E-3,.156838E-2,0
STARLINK-37582,2026-123L,2026-06-28T07:51:40.954176,15.75259904,.00013565,53.1558,186.3095,45.2816,314.8314,0,U,69363,999,379,.11731791E-2,.183311E-2,0
STARLINK-37309,2026-123M,2026-06-28T14:00:01.000224,15.75276905,.00010856,53.1582,184.4572,86.8568,207.9159,0,U,69364,999,513,-.46150116E-3,-.70908E-3,0
STARLINK-37436,2026-123N,2026-06-28T07:41:29.148000,15.80903126,.00009454,53.1563,185.5217,80.5163,279.5967,0,U,69365,999,380,.54123869E-3,.107614E-2,0
STARLINK-37581,2026-123P,2026-06-28T06:15:53.212320,15.80839988,.00019472,53.1562,185.8633,27.8191,332.2935,0,U,69366,999,379,.11055653E-2,.222892E-2,0
STARLINK-37683,2026-123Q,2026-06-28T13:10:54.748992,15.75289477,.00013273,53.1565,184.8316,74.3772,285.7394,0,U,69367,999,383,.15753422E-2,.24862E-2,0
STARLINK-37687,2026-123R,2026-06-28T12:08:09.906144,15.80987609,.00012548,53.1560,184.5412,133.5654,226.5473,0,U,69368,999,383,.12862668E-2,.262417E-2,0
STARLINK-37631,2026-123S,2026-06-28T14:00:01.000224,15.75276714,.00009925,53.1584,184.2446,86.8644,310.9210,0,U,69369,999,504,-.44980114E-3,-.69139E-3,0
STARLINK-37673,2026-123T,2026-06-28T12:51:46.082592,15.75370834,.00009171,53.1587,184.7434,66.6936,293.4181,0,U,69370,999,383,.22882302E-2,.367932E-2,0
STARLINK-37645,2026-123U,2026-06-28T14:00:01.000224,15.75277039,.00010967,53.1575,184.3498,83.0807,263.2016,0,U,69371,999,504,-.52939653E-3,-.81149E-3,0
STARLINK-37688,2026-123V,2026-06-28T14:00:01.000224,15.75242924,.00011897,53.1589,184.1853,92.8203,332.5690,0,U,69372,999,504,-.17032554E-3,-.2667E-3,0
STARLINK-37685,2026-123W,2026-06-28T07:33:50.818464,15.80950523,.00011287,53.1561,185.4832,98.8377,261.2774,0,U,69373,999,380,.12163953E-2,.247261E-2,0
STARLINK-37632,2026-123X,2026-06-28T12:05:53.200608,15.80983967,.00009366,53.1554,184.5293,94.8127,265.3003,0,U,69374,999,383,.13488204E-2,.275595E-2,0
STARLINK-37454,2026-123Y,2026-06-28T13:35:20.316768,15.80982778,.00009196,53.1558,184.2032,107.1075,253.0048,0,U,69375,999,384,.11511551E-2,.233946E-2,0
STARLINK-37485,2026-123Z,2026-06-28T14:00:01.000224,15.75257058,.00012644,53.1571,184.2913,79.0892,294.7887,0,U,69376,999,513,-.28694158E-3,-.44429E-3,0
STARLINK-37439,2026-123AA,2026-06-28T11:52:59.528352,15.80973168,.0000785,53.1562,184.4658,92.1639,267.9474,0,U,69377,999,383,.13749913E-2,.280996E-2,0
STARLINK-37376,2026-123AB,2026-06-28T06:45:51.405408,15.75239923,.00011842,53.1587,185.9991,88.0770,272.0386,0,U,69378,999,379,.12666999E-2,.198153E-2,0
STARLINK-37383,2026-123AC,2026-06-28T14:00:01.000224,15.75266795,.00011866,53.1588,184.0806,82.2596,32.7992,0,U,69379,999,513,-.40334462E-3,-.6209E-3,0
STARLINK-37411,2026-123AD,2026-06-28T11:54:56.730816,15.80971885,.00006337,53.1567,184.4737,113.9099,246.1990,0,U,69380,999,383,.11968071E-2,.243402E-2,0
STARLINK-37427,2026-123AE,2026-06-28T07:15:55.132416,15.80955169,.0001155,53.1569,185.3955,71.2651,288.8497,0,U,69381,999,380,.14774056E-2,.302484E-2,0
QIANFAN-165,2026-124A,2026-06-28T13:31:19.574400,14.16014164,.00035657,88.9984,0.7541,106.4023,253.7557,0,U,69382,999,342,.45542866E-4,.104E-5,0
QIANFAN-166,2026-124B,2026-06-28T13:12:48.783168,14.17061423,.00030245,88.9985,0.7524,101.4854,258.6674,0,U,69383,999,342,.45926181E-4,.107E-5,0
QIANFAN-167,2026-124C,2026-06-28T13:19:13.800576,14.16527687,.00032096,88.9984,0.7528,138.8749,221.2681,0,U,69384,999,342,.41589773E-4,.97E-6,0
QIANFAN-168,2026-124D,2026-06-28T14:39:57.335328,14.17874673,.00039213,88.9984,0.7427,115.7833,244.3761,0,U,69385,999,343,.40751739E-4,.98E-6,0
QIANFAN-169,2026-124E,2026-06-28T14:31:44.483808,14.18288400,.00043055,88.9984,0.7418,129.6046,230.5523,0,U,69386,999,343,.41496823E-4,.1E-5,0
