STARLINK-37598          
1 69357U 26123E   26179.48493811  .00187241  00000+0  92933-3 0  9998
2 69357  53.1563 185.1451 0001348  96.8804 263.2372 15.80929779  3826
STARLINK-37602          
1 69358U 26123F   26179.27740293  .00176991  00000+0  11344-2 0  9991
2 69358  53.1587 186.7150 0001089  97.8989 262.2155 15.75245452  3789
STARLINK-37600          
1 69359U 26123G   26179.27318747  .00208050  00000+0  13282-2 0  9992
2 69359  53.1570 186.6869 0001160  78.2610 281.8541 15.75239286  3786
STARLINK-37599          
1 69360U 26123H   26179.53778583  .00271432  00000+0  13301-2 0  9997
2 69360  53.1550 184.7582 0001061 102.2131 257.9010 15.80967665  3839
STARLINK-37039          
1 69361U 26123J   26179.31361666  .00236823  00000+0  15044-2 0  9995
2 69361  53.1589 186.2169 0001220  92.2596 267.8564 15.75266215  3796
STARLINK-37040          
1 69362U 26123K   26179.52341007  .00156838  00000+0  78074-3 0  9996
2 69362  53.1565 184.6606 0002775 164.9255 195.1851 15.80955402  3830
STARLINK-37582          
1 69363U 26123L   26179.32755734  .00183311  00000+0  11732-2 0  9994
2 69363  53.1558 186.3095 0001356  45.2816 314.8314 15.75259904  3799
STARLINK-37309          
1 69364U 26123M   26179.58334491 -.00070908  00000+0 -46150-3 0  9998
2 69364  53.1582 184.4572 0001085  86.8568 207.9159 15.75276905  5139
STARLINK-37436          
1 69365U 26123N   26179.32047625  .00107614  00000+0  54124-3 0  9994
2 69365  53.1563 185.5217 0000945  80.5163 279.5967 15.80903126  3805
STARLINK-37581          
1 69366U 26123P   26179.26103255  .00222892  00000+0  11056-2 0  9992
2 69366  53.1562 185.8633 0001947  27.8191 332.2935 15.80839988  3792
STARLINK-37683          
1 69367U 26123Q   26179.54924478  .00248620  00000+0  15753-2 0  9997
2 69367  53.1565 184.8316 0001327  74.3772 285.7394 15.75289477  3839
STARLINK-37687          
1 69368U 26123R   26179.50567021  .00262417  00000+0  12863-2 0  9990
2 69368  53.1560 184.5412 0001254 133.5654 226.5473 15.80987609  3834
STARLINK-37631          
1 69369U 26123S   26179.58334491 -.00069139  00000+0 -44980-3 0  9996
2 69369  53.1584 184.2446 0000992  86.8644 310.9210 15.75276714  5046
STARLINK-37673          
1 69370U 26123T   26179.53595003  .00367932  00000+0  22882-2 0  9997
2 69370  53.1587 184.7434 0000917  66.6936 293.4181 15.75370834  3835
STARLINK-37645          
1 69371U 26123U   26179.58334491 -.00081149  00000+0 -52940-3 0  9999
2 69371  53.1575 184.3498 0001096  83.0807 263.2016 15.75277039  5048
STARLINK-37688          
1 69372U 26123V   26179.58334491 -.00026670  00000+0 -17033-3 0  9992
2 69372  53.1589 184.1853 0001189  92.8203 332.5690 15.75242924  5041
STARLINK-37685          
1 69373U 26123W   26179.31517151  .00247261  00000+0  12164-2 0  9998
2 69373  53.1561 185.4832 0001128  98.8377 261.2774 15.80950523  3804
STARLINK-37632          
1 69374U 26123X   26179.50408797  .00275595  00000+0  13488-2 0  9996
2 69374  53.1554 184.5293 0000936  94.8127 265.3003 15.80983967  3834
STARLINK-37454          
1 69375U 26123Y   26179.56620737  .00233946  00000+0  11512-2 0  9993
2 69375  53.1558 184.2032 0000919 107.1075 253.0048 15.80982778  3841
STARLINK-37485          
1 69376U 26123Z   26179.58334491 -.00044429  00000+0 -28694-3 0  9993
2 69376  53.1571 184.2913 0001264  79.0892 294.7887 15.75257058  5130
STARLINK-37439          
1 69377U 26123AA  26179.49513343  .00280996  00000+0  13750-2 0  9994
2 69377  53.1562 184.4658 0000785  92.1639 267.9474 15.80973168  3833
STARLINK-37376          
1 69378U 26123AB  26179.28184497  .00198153  00000+0  12667-2 0  9995
2 69378  53.1587 185.9991 0001184  88.0770 272.0386 15.75239923  3793
STARLINK-37383          
1 69379U 26123AC  26179.58334491 -.00062090  00000+0 -40334-3 0  9995
2 69379  53.1588 184.0806 0001186  82.2596  32.7992 15.75266795  5135
STARLINK-37411          
1 69380U 26123AD  26179.49648994  .00243402  00000+0  11968-2 0  9999
2 69380  53.1567 184.4737 0000633 113.9099 246.1990 15.80971885  3830
STARLINK-37427          
1 69381U 26123AE  26179.30272144  .00302484  00000+0  14774-2 0  9994
2 69381  53.1569 185.3955 0001155  71.2651 288.8497 15.80955169  3804
QIANFAN-165             
1 69382U 26124A   26179.56342100  .00000104  00000+0  45543-4 0  9998
2 69382  88.9984   0.7541 0003565 106.4023 253.7557 14.16014164  3429
QIANFAN-166             
1 69383U 26124B   26179.55056462  .00000107  00000+0  45926-4 0  9999
2 69383  88.9985   0.7524 0003024 101.4854 258.6674 14.17061423  3424
QIANFAN-167             
1 69384U 26124C   26179.55502084  .00000097  00000+0  41590-4 0  9997
2 69384  88.9984   0.7528 0003209 138.8749 221.2681 14.16527687  3422
QIANFAN-168             
1 69385U 26124D   26179.61108027  .00000098  00000+0  40752-4 0  9994
2 69385  88.9984   0.7427 0003921 115.7833 244.3761 14.17874673  3437
QIANFAN-169             
1 69386U 26124E   26179.60537597  .00000100  00000+0  41497-4 0  9993
2 69386  88.9984   0.7418 0004305 129.6046 230.5523 14.18288400  3436
